{
  "type": "FeatureCollection",
  "features": [
    {
      "type": "Feature",
      "properties": {
        "norad_id": 67220,
        "name": "DISKSAT B",
        "group": "last-30-days",
        "lat": -20.65213408386974,
        "lon": 143.95764528924727,
        "alt_km": 550.482059749038,
        "timestamp": "2025-12-21T22:41:40.169079+00:00",
        "meta_object_name": "DISKSAT B",
        "meta_object_id": "2025-305B",
        "meta_epoch": "2025-12-20T05:57:31.803264",
        "meta_mean_motion": 15.05702195,
        "meta_eccentricity": 0.0004681,
        "meta_inclination": 45.0108,
        "meta_ra_of_asc_node": 310.7693,
        "meta_arg_of_pericenter": 270.4757,
        "meta_mean_anomaly": 89.5581,
        "meta_ephemeris_type": 0,
        "meta_classification_type": "U",
        "meta_norad_cat_id": 67220,
        "meta_element_set_no": 999,
        "meta_rev_at_epoch": 31,
        "meta_bstar": 5.1086e-05,
        "meta_mean_motion_dot": 5.11e-06,
        "meta_mean_motion_ddot": 0,
        "tle_line1": "1 67220U 25305B   25354.24828476  .00000511  00000+0  51086-4 0  9992",
        "tle_line2": "2 67220  45.0108 310.7693 0004681 270.4757  89.5581 15.05702195   312"
      },
      "geometry": {
        "type": "Point",
        "coordinates": [
          143.95764528924727,
          -20.65213408386974
        ]
      }
    },
    {
      "type": "Feature",
      "properties": {
        "norad_id": 67221,
        "name": "DISKSAT C",
        "group": "last-30-days",
        "lat": -20.174749837610015,
        "lon": 143.37084619073855,
        "alt_km": 551.3027158932528,
        "timestamp": "2025-12-21T22:41:40.169089+00:00",
        "meta_object_name": "DISKSAT C",
        "meta_object_id": "2025-305C",
        "meta_epoch": "2025-12-20T07:33:11.308608",
        "meta_mean_motion": 15.0565367,
        "meta_eccentricity": 0.00043877,
        "meta_inclination": 45.0067,
        "meta_ra_of_asc_node": 310.4143,
        "meta_arg_of_pericenter": 282.7791,
        "meta_mean_anomaly": 77.2594,
        "meta_ephemeris_type": 0,
        "meta_classification_type": "U",
        "meta_norad_cat_id": 67221,
        "meta_element_set_no": 999,
        "meta_rev_at_epoch": 31,
        "meta_bstar": 0.00010190761,
        "meta_mean_motion_dot": 1.256e-05,
        "meta_mean_motion_ddot": 0,
        "tle_line1": "1 67221U 25305C   25354.31471422  .00001256  00000+0  10191-3 0  9994",
        "tle_line2": "2 67221  45.0067 310.4143 0004387 282.7791  77.2594 15.05653670   312"
      },
      "geometry": {
        "type": "Point",
        "coordinates": [
          143.37084619073855,
          -20.174749837610015
        ]
      }
    },
    {
      "type": "Feature",
      "properties": {
        "norad_id": 67222,
        "name": "DISKSAT D",
        "group": "last-30-days",
        "lat": -19.410610348194513,
        "lon": 142.44838573060497,
        "alt_km": 551.8167215291178,
        "timestamp": "2025-12-21T22:41:40.169099+00:00",
        "meta_object_name": "DISKSAT D",
        "meta_object_id": "2025-305D",
        "meta_epoch": "2025-12-20T07:33:21.625632",
        "meta_mean_motion": 15.05567005,
        "meta_eccentricity": 0.00044772,
        "meta_inclination": 45.0056,
        "meta_ra_of_asc_node": 310.415,
        "meta_arg_of_pericenter": 287.6101,
        "meta_mean_anomaly": 72.4284,
        "meta_ephemeris_type": 0,
        "meta_classification_type": "U",
        "meta_norad_cat_id": 67222,
        "meta_element_set_no": 999,
        "meta_rev_at_epoch": 31,
        "meta_bstar": 0.00010184381,
        "meta_mean_motion_dot": 1.252e-05,
        "meta_mean_motion_ddot": 0,
        "tle_line1": "1 67222U 25305D   25354.31483363  .00001252  00000+0  10184-3 0  9990",
        "tle_line2": "2 67222  45.0056 310.4150 0004477 287.6101  72.4284 15.05567005   317"
      },
      "geometry": {
        "type": "Point",
        "coordinates": [
          142.44838573060497,
          -19.410610348194513
        ]
      }
    },
    {
      "type": "Feature",
      "properties": {
        "norad_id": 67223,
        "name": "ELECTRON KICK STAGE R/B",
        "group": "last-30-days",
        "lat": 33.392729142299636,
        "lon": -18.2136102403846,
        "alt_km": 452.26983686414223,
        "timestamp": "2025-12-21T22:41:40.169109+00:00",
        "meta_object_name": "ELECTRON KICK STAGE R/B",
        "meta_object_id": "2025-305E",
        "meta_epoch": "2025-12-20T06:12:15.244992",
        "meta_mean_motion": 15.47983126,
        "meta_eccentricity": 0.01793228,
        "meta_inclination": 44.9975,
        "meta_ra_of_asc_node": 310.0187,
        "meta_arg_of_pericenter": 148.745,
        "meta_mean_anomaly": 212.425,
        "meta_ephemeris_type": 0,
        "meta_classification_type": "U",
        "meta_norad_cat_id": 67223,
        "meta_element_set_no": 999,
        "meta_rev_at_epoch": 32,
        "meta_bstar": 0.0001630388,
        "meta_mean_motion_dot": 0.00016328,
        "meta_mean_motion_ddot": 0,
        "tle_line1": "1 67223U 25305E   25354.25850978  .00016328  00000+0  16304-3 0  9994",
        "tle_line2": "2 67223  44.9975 310.0187 0179322 148.7450 212.4250 15.47983126   320"
      },
      "geometry": {
        "type": "Point",
        "coordinates": [
          -18.2136102403846,
          33.392729142299636
        ]
      }
    },
    {
      "type": "Feature",
      "properties": {
        "norad_id": 67224,
        "name": "ELECTRON R/B",
        "group": "last-30-days",
        "lat": -44.738444206164466,
        "lon": -142.3807091219041,
        "alt_km": 214.37959084091653,
        "timestamp": "2025-12-21T22:41:40.169119+00:00",
        "meta_object_name": "ELECTRON R/B",
        "meta_object_id": "2025-305F",
        "meta_epoch": "2025-12-18T18:27:13.126752",
        "meta_mean_motion": 15.64663678,
        "meta_eccentricity": 0.0262888,
        "meta_inclination": 45.0188,
        "meta_ra_of_asc_node": 318.3021,
        "meta_arg_of_pericenter": 280.1207,
        "meta_mean_anomaly": 77.0133,
        "meta_ephemeris_type": 0,
        "meta_classification_type": "U",
        "meta_norad_cat_id": 67224,
        "meta_element_set_no": 999,
        "meta_rev_at_epoch": 9,
        "meta_bstar": 0.00022935,
        "meta_mean_motion_dot": 0.00172783,
        "meta_mean_motion_ddot": 8.6369e-06,
        "tle_line1": "1 67224U 25305F   25352.76890193  .00172783  86369-5  22935-3 0  9995",
        "tle_line2": "2 67224  45.0188 318.3021 0262888 280.1207  77.0133 15.64663678    93"
      },
      "geometry": {
        "type": "Point",
        "coordinates": [
          -142.3807091219041,
          -44.738444206164466
        ]
      }
    },
    {
      "type": "Feature",
      "properties": {
        "norad_id": 67226,
        "name": "TJS-23",
        "group": "last-30-days",
        "lat": -1.469852776681992,
        "lon": -66.2499509651407,
        "alt_km": 44994.77037222509,
        "timestamp": "2025-12-21T22:41:40.169130+00:00",
        "meta_object_name": "TJS-23",
        "meta_object_id": "2025-306A",
        "meta_epoch": "2025-12-20T20:00:40.923072",
        "meta_mean_motion": 1.72702831,
        "meta_eccentricity": 0.77541025,
        "meta_inclination": 16.4095,
        "meta_ra_of_asc_node": 299.0446,
        "meta_arg_of_pericenter": 179.5478,
        "meta_mean_anomaly": 182.6158,
        "meta_ephemeris_type": 0,
        "meta_classification_type": "U",
        "meta_norad_cat_id": 67226,
        "meta_element_set_no": 999,
        "meta_rev_at_epoch": 2,
        "meta_bstar": 0.00066611385,
        "meta_mean_motion_dot": 3.034e-05,
        "meta_mean_motion_ddot": 0,
        "tle_line1": "1 67226U 25306A   25354.83380698  .00003034  00000+0  66611-3 0  9995",
        "tle_line2": "2 67226  16.4095 299.0446 7754102 179.5478 182.6158  1.72702831    25"
      },
      "geometry": {
        "type": "Point",
        "coordinates": [
          -66.2499509651407,
          -1.469852776681992
        ]
      }
    },
    {
      "type": "Feature",
      "properties": {
        "norad_id": 67227,
        "name": "CZ-5 R/B",
        "group": "last-30-days",
        "lat": 4.554264952305393,
        "lon": -45.780480424310156,
        "alt_km": 36082.84835953873,
        "timestamp": "2025-12-21T22:41:40.169144+00:00",
        "meta_object_name": "CZ-5 R/B",
        "meta_object_id": "2025-306B",
        "meta_epoch": "2025-12-20T19:22:03.368352",
        "meta_mean_motion": 1.92163474,
        "meta_eccentricity": 0.75788222,
        "meta_inclination": 16.4229,
        "meta_ra_of_asc_node": 298.9498,
        "meta_arg_of_pericenter": 179.0262,
        "meta_mean_anomaly": 184.9269,
        "meta_ephemeris_type": 0,
        "meta_classification_type": "U",
        "meta_norad_cat_id": 67227,
        "meta_element_set_no": 999,
        "meta_rev_at_epoch": 2,
        "meta_bstar": 0.00048545663,
        "meta_mean_motion_dot": 1.201e-05,
        "meta_mean_motion_ddot": 0,
        "tle_line1": "1 67227U 25306B   25354.80698343  .00001201  00000+0  48546-3 0  9993",
        "tle_line2": "2 67227  16.4229 298.9498 7578822 179.0262 184.9269  1.92163474    23"
      },
      "geometry": {
        "type": "Point",
        "coordinates": [
          -45.780480424310156,
          4.554264952305393
        ]
      }
    }
  ]
}